AMC-3                   
1 24936U 97050A   26116.83625653 -.00000268  00000+0  00000+0 0  9994
2 24936   8.0228  64.6637 0003090 321.0795  58.1392  1.00271411 51929
NSS-11                  
1 26554U 00059A   26116.78516862  .00000015  00000+0  00000+0 0  9999
2 26554   1.9958  81.9620 0002858 314.7261 276.7519  1.00272683 40773
AMC-6                   
1 26580U 00067A   26116.72678897  .00000076  00000+0  00000+0 0  9995
2 26580   0.0764  69.2678 0003970 343.7340 288.3600  1.00274255 93376
AMC-11                  
1 28252U 04017A   26116.75036360  .00000033  00000+0  00000+0 0  9991
2 28252   0.1567  76.6031 0000605 327.2916 295.4238  0.99091447 80345
AMC-15                  
1 28446U 04041A   26116.61583963 -.00000101  00000+0  00000+0 0  9991
2 28446   0.0519  55.3517 0002372 333.5328 302.3696  1.00272042 78785
NSS-10                  
1 28526U 05003A   26116.77177036 -.00000258  00000+0  00000+0 0  9999
2 28526   6.3239  71.0646 0003150 319.5106  64.5797  1.00271746 52649
ASTRA 1KR               
1 29055U 06012A   26116.85428325  .00000108  00000+0  00000+0 0  9990
2 29055   0.3426  82.5744 0003477 311.7560 147.0572  1.00273748 45188
ASTRA 1L                
1 31306U 07016A   26116.41779170 -.00000196  00000+0  00000+0 0  9994
2 31306   1.1897  81.9084 0004694 328.8407 289.5656  1.00271503 44464
ASTRA 4A                
1 32299U 07057A   26116.35232586  .00000020  00000+0  00000+0 0  9994
2 32299   0.0201 343.0517 0002773  65.2045 297.7526  1.00274291 51127
ASTRA 1M                
1 33436U 08057A   26116.85436992  .00000110  00000+0  00000+0 0  9991
2 33436   0.1652  79.4717 0003870   2.2005 100.1603  1.00274543 45227
NSS-9                   
1 33749U 09008A   26116.81545644  .00000061  00000+0  00000+0 0  9991
2 33749   1.1307  83.0752 0002169 296.1085 312.2522  1.00271848 63001
SES-7 (PROTOSTAR 2)     
1 34941U 09027A   26116.80063637 -.00000356  00000+0  00000+0 0  9991
2 34941   0.0977  79.4427 0001692 247.2684 284.5662  1.00270386 62110
NSS-12                  
1 36032U 09058A   26116.89122111  .00000060  00000+0  00000+0 0  9991
2 36032   0.0636  62.7971 0005039 310.3539 219.5683  1.00272364 60403
SES-1                   
1 36516U 10016A   26116.61661963 -.00000126  00000+0  00000+0 0  9991
2 36516   0.0236 289.7084 0002600 105.4092 300.4773  1.00272067 58519
ASTRA 3B                
1 36581U 10021A   26116.85514992  .00000127  00000+0  00000+0 0  9994
2 36581   1.3373  84.1370 0003906 320.2736 141.8129  1.00269207 58350
SES-3                   
1 37748U 11035A   26116.61618631 -.00000113  00000+0  00000+0 0  9991
2 37748   1.1950  83.5851 0003084 313.4212 296.4404  1.00271658 54073
ASTRA 1N                
1 37775U 11041A   26116.85436992  .00000108  00000+0  00000+0 0  9995
2 37775   0.0988  50.1680 0005543   9.4282 122.0290  1.00270798 44017
