[{"OBJECT_NAME":"AMC-3","OBJECT_ID":"1997-050A","EPOCH":"2026-04-26T20:04:12.564192","MEAN_MOTION":1.00271411,"ECCENTRICITY":0.000309,"INCLINATION":8.0228,"RA_OF_ASC_NODE":64.6637,"ARG_OF_PERICENTER":321.0795,"MEAN_ANOMALY":58.1392,"EPHEMERIS_TYPE":0,"CLASSIFICATION_TYPE":"U","NORAD_CAT_ID":24936,"ELEMENT_SET_NO":999,"REV_AT_EPOCH":5192,"BSTAR":0,"MEAN_MOTION_DOT":-2.68e-6,"MEAN_MOTION_DDOT":0},{"OBJECT_NAME":"NSS-11","OBJECT_ID":"2000-059A","EPOCH":"2026-04-26T18:50:38.568768","MEAN_MOTION":1.00272683,"ECCENTRICITY":0.0002858,"INCLINATION":1.9958,"RA_OF_ASC_NODE":81.962,"ARG_OF_PERICENTER":314.7261,"MEAN_ANOMALY":276.7519,"EPHEMERIS_TYPE":0,"CLASSIFICATION_TYPE":"U","NORAD_CAT_ID":26554,"ELEMENT_SET_NO":999,"REV_AT_EPOCH":4077,"BSTAR":0,"MEAN_MOTION_DOT":1.5e-7,"MEAN_MOTION_DDOT":0},{"OBJECT_NAME":"AMC-6","OBJECT_ID":"2000-067A","EPOCH":"2026-04-26T17:26:34.567008","MEAN_MOTION":1.00274255,"ECCENTRICITY":0.000397,"INCLINATION":0.0764,"RA_OF_ASC_NODE":69.2678,"ARG_OF_PERICENTER":343.734,"MEAN_ANOMALY":288.36,"EPHEMERIS_TYPE":0,"CLASSIFICATION_TYPE":"U","NORAD_CAT_ID":26580,"ELEMENT_SET_NO":999,"REV_AT_EPOCH":9337,"BSTAR":0,"MEAN_MOTION_DOT":7.6e-7,"MEAN_MOTION_DDOT":0},{"OBJECT_NAME":"AMC-11","OBJECT_ID":"2004-017A","EPOCH":"2026-04-26T18:00:31.415040","MEAN_MOTION":0.99091447,"ECCENTRICITY":6.05e-5,"INCLINATION":0.1567,"RA_OF_ASC_NODE":76.6031,"ARG_OF_PERICENTER":327.2916,"MEAN_ANOMALY":295.4238,"EPHEMERIS_TYPE":0,"CLASSIFICATION_TYPE":"U","NORAD_CAT_ID":28252,"ELEMENT_SET_NO":999,"REV_AT_EPOCH":8034,"BSTAR":0,"MEAN_MOTION_DOT":3.3e-7,"MEAN_MOTION_DDOT":0},{"OBJECT_NAME":"AMC-15","OBJECT_ID":"2004-041A","EPOCH":"2026-04-26T14:46:48.544032","MEAN_MOTION":1.00272042,"ECCENTRICITY":0.0002372,"INCLINATION":0.0519,"RA_OF_ASC_NODE":55.3517,"ARG_OF_PERICENTER":333.5328,"MEAN_ANOMALY":302.3696,"EPHEMERIS_TYPE":0,"CLASSIFICATION_TYPE":"U","NORAD_CAT_ID":28446,"ELEMENT_SET_NO":999,"REV_AT_EPOCH":7878,"BSTAR":0,"MEAN_MOTION_DOT":-1.01e-6,"MEAN_MOTION_DDOT":0},{"OBJECT_NAME":"NSS-10","OBJECT_ID":"2005-003A","EPOCH":"2026-04-26T18:31:20.959104","MEAN_MOTION":1.00271746,"ECCENTRICITY":0.000315,"INCLINATION":6.3239,"RA_OF_ASC_NODE":71.0646,"ARG_OF_PERICENTER":319.5106,"MEAN_ANOMALY":64.5797,"EPHEMERIS_TYPE":0,"CLASSIFICATION_TYPE":"U","NORAD_CAT_ID":28526,"ELEMENT_SET_NO":999,"REV_AT_EPOCH":5264,"BSTAR":0,"MEAN_MOTION_DOT":-2.58e-6,"MEAN_MOTION_DDOT":0},{"OBJECT_NAME":"ASTRA 1KR","OBJECT_ID":"2006-012A","EPOCH":"2026-04-26T20:30:10.072800","MEAN_MOTION":1.00273748,"ECCENTRICITY":0.0003477,"INCLINATION":0.3426,"RA_OF_ASC_NODE":82.5744,"ARG_OF_PERICENTER":311.756,"MEAN_ANOMALY":147.0572,"EPHEMERIS_TYPE":0,"CLASSIFICATION_TYPE":"U","NORAD_CAT_ID":29055,"ELEMENT_SET_NO":999,"REV_AT_EPOCH":4518,"BSTAR":0,"MEAN_MOTION_DOT":1.08e-6,"MEAN_MOTION_DDOT":0},{"OBJECT_NAME":"ASTRA 1L","OBJECT_ID":"2007-016A","EPOCH":"2026-04-26T10:01:37.202880","MEAN_MOTION":1.00271503,"ECCENTRICITY":0.00046944,"INCLINATION":1.1897,"RA_OF_ASC_NODE":81.9084,"ARG_OF_PERICENTER":328.8407,"MEAN_ANOMALY":289.5656,"EPHEMERIS_TYPE":0,"CLASSIFICATION_TYPE":"U","NORAD_CAT_ID":31306,"ELEMENT_SET_NO":999,"REV_AT_EPOCH":4446,"BSTAR":0,"MEAN_MOTION_DOT":-1.96e-6,"MEAN_MOTION_DDOT":0},{"OBJECT_NAME":"ASTRA 4A","OBJECT_ID":"2007-057A","EPOCH":"2026-04-26T08:27:20.954304","MEAN_MOTION":1.00274291,"ECCENTRICITY":0.00027735,"INCLINATION":0.0201,"RA_OF_ASC_NODE":343.0517,"ARG_OF_PERICENTER":65.2045,"MEAN_ANOMALY":297.7526,"EPHEMERIS_TYPE":0,"CLASSIFICATION_TYPE":"U","NORAD_CAT_ID":32299,"ELEMENT_SET_NO":999,"REV_AT_EPOCH":5112,"BSTAR":0,"MEAN_MOTION_DOT":2.0e-7,"MEAN_MOTION_DDOT":0},{"OBJECT_NAME":"ASTRA 1M","OBJECT_ID":"2008-057A","EPOCH":"2026-04-26T20:30:17.561088","MEAN_MOTION":1.00274543,"ECCENTRICITY":0.000387,"INCLINATION":0.1652,"RA_OF_ASC_NODE":79.4717,"ARG_OF_PERICENTER":2.2005,"MEAN_ANOMALY":100.1603,"EPHEMERIS_TYPE":0,"CLASSIFICATION_TYPE":"U","NORAD_CAT_ID":33436,"ELEMENT_SET_NO":999,"REV_AT_EPOCH":4522,"BSTAR":0,"MEAN_MOTION_DOT":1.1e-6,"MEAN_MOTION_DDOT":0},{"OBJECT_NAME":"NSS-9","OBJECT_ID":"2009-008A","EPOCH":"2026-04-26T19:34:15.436416","MEAN_MOTION":1.00271848,"ECCENTRICITY":0.0002169,"INCLINATION":1.1307,"RA_OF_ASC_NODE":83.0752,"ARG_OF_PERICENTER":296.1085,"MEAN_ANOMALY":312.2522,"EPHEMERIS_TYPE":0,"CLASSIFICATION_TYPE":"U","NORAD_CAT_ID":33749,"ELEMENT_SET_NO":999,"REV_AT_EPOCH":6300,"BSTAR":0,"MEAN_MOTION_DOT":6.1e-7,"MEAN_MOTION_DDOT":0},{"OBJECT_NAME":"SES-7 (PROTOSTAR 2)","OBJECT_ID":"2009-027A","EPOCH":"2026-04-26T19:12:54.982368","MEAN_MOTION":1.00270386,"ECCENTRICITY":0.0001692,"INCLINATION":0.0977,"RA_OF_ASC_NODE":79.4427,"ARG_OF_PERICENTER":247.2684,"MEAN_ANOMALY":284.5662,"EPHEMERIS_TYPE":0,"CLASSIFICATION_TYPE":"U","NORAD_CAT_ID":34941,"ELEMENT_SET_NO":999,"REV_AT_EPOCH":6211,"BSTAR":0,"MEAN_MOTION_DOT":-3.56e-6,"MEAN_MOTION_DDOT":0},{"OBJECT_NAME":"NSS-12","OBJECT_ID":"2009-058A","EPOCH":"2026-04-26T21:23:21.503904","MEAN_MOTION":1.00272364,"ECCENTRICITY":0.0005039,"INCLINATION":0.0636,"RA_OF_ASC_NODE":62.7971,"ARG_OF_PERICENTER":310.3539,"MEAN_ANOMALY":219.5683,"EPHEMERIS_TYPE":0,"CLASSIFICATION_TYPE":"U","NORAD_CAT_ID":36032,"ELEMENT_SET_NO":999,"REV_AT_EPOCH":6040,"BSTAR":0,"MEAN_MOTION_DOT":6.0e-7,"MEAN_MOTION_DDOT":0},{"OBJECT_NAME":"SES-1","OBJECT_ID":"2010-016A","EPOCH":"2026-04-26T14:47:55.936032","MEAN_MOTION":1.00272067,"ECCENTRICITY":0.00026,"INCLINATION":0.0236,"RA_OF_ASC_NODE":289.7084,"ARG_OF_PERICENTER":105.4092,"MEAN_ANOMALY":300.4773,"EPHEMERIS_TYPE":0,"CLASSIFICATION_TYPE":"U","NORAD_CAT_ID":36516,"ELEMENT_SET_NO":999,"REV_AT_EPOCH":5851,"BSTAR":0,"MEAN_MOTION_DOT":-1.26e-6,"MEAN_MOTION_DDOT":0},{"OBJECT_NAME":"ASTRA 3B","OBJECT_ID":"2010-021A","EPOCH":"2026-04-26T20:31:24.953088","MEAN_MOTION":1.00269207,"ECCENTRICITY":0.0003906,"INCLINATION":1.3373,"RA_OF_ASC_NODE":84.137,"ARG_OF_PERICENTER":320.2736,"MEAN_ANOMALY":141.8129,"EPHEMERIS_TYPE":0,"CLASSIFICATION_TYPE":"U","NORAD_CAT_ID":36581,"ELEMENT_SET_NO":999,"REV_AT_EPOCH":5835,"BSTAR":0,"MEAN_MOTION_DOT":1.27e-6,"MEAN_MOTION_DDOT":0},{"OBJECT_NAME":"SES-3","OBJECT_ID":"2011-035A","EPOCH":"2026-04-26T14:47:18.497184","MEAN_MOTION":1.00271658,"ECCENTRICITY":0.0003084,"INCLINATION":1.195,"RA_OF_ASC_NODE":83.5851,"ARG_OF_PERICENTER":313.4212,"MEAN_ANOMALY":296.4404,"EPHEMERIS_TYPE":0,"CLASSIFICATION_TYPE":"U","NORAD_CAT_ID":37748,"ELEMENT_SET_NO":999,"REV_AT_EPOCH":5407,"BSTAR":0,"MEAN_MOTION_DOT":-1.13e-6,"MEAN_MOTION_DDOT":0},{"OBJECT_NAME":"ASTRA 1N","OBJECT_ID":"2011-041A","EPOCH":"2026-04-26T20:30:17.561088","MEAN_MOTION":1.00270798,"ECCENTRICITY":0.0005543,"INCLINATION":0.0988,"RA_OF_ASC_NODE":50.168,"ARG_OF_PERICENTER":9.4282,"MEAN_ANOMALY":122.029,"EPHEMERIS_TYPE":0,"CLASSIFICATION_TYPE":"U","NORAD_CAT_ID":37775,"ELEMENT_SET_NO":999,"REV_AT_EPOCH":4401,"BSTAR":0,"MEAN_MOTION_DOT":1.08e-6,"MEAN_MOTION_DDOT":0}]
